start=new Date('2022-09-29T00:00:00.000Z').valueOf();
sats=[{"CENTER_NAME":"EARTH","SEMIMAJOR_AXIS":"6917.880","CLASSIFICATION_TYPE":"U","MEAN_MOTION":"15.08840082","REV_AT_EPOCH":"2583","BSTAR":"0.00003310900000","TIME_SYSTEM":"UTC","LAUNCH_DATE":"2022-04-29","REF_FRAME":"TEME","TLE_LINE1":"1 52350U 22045V   22271.46611460  .00000239  00000-0  33109-4 0  9994","PERIOD":"95.438","TLE_LINE2":"2 52350  53.2192  87.5161 0002345  42.5400 317.5773 15.08840082 25833","MEAN_ELEMENT_THEORY":"SGP4","APOAPSIS":"541.367","EPHEMERIS_TYPE":"0","COUNTRY_CODE":"US","OBJECT_NAME":"STARLINK-3754","ELEMENT_SET_NO":"999","OBJECT_TYPE":"PAYLOAD","INCLINATION":"53.2192","ARG_OF_PERICENTER":"42.5400","SITE":"AFETR","DECAY_DATE":null,"OBJECT_ID":"2022-045V","MEAN_ANOMALY":"317.5773","MEAN_MOTION_DOT":"0.00000239","RA_OF_ASC_NODE":"87.5161","FILE":"3586212","MEAN_MOTION_DDOT":"0.0000000000000","ECCENTRICITY":"0.00023450","EPOCH":"2022-09-28T11:11:12.301440","NORAD_CAT_ID":"52350","GP_ID":"213742723","PERIAPSIS":"538.123","RCS_SIZE":"LARGE"},{"CLASSIFICATION_TYPE":"U","MEAN_MOTION":"15.20181881","CENTER_NAME":"EARTH","SEMIMAJOR_AXIS":"6883.429","REV_AT_EPOCH":"2588","REF_FRAME":"TEME","LAUNCH_DATE":"2022-04-29","TIME_SYSTEM":"UTC","BSTAR":"0.00898820000000","TLE_LINE2":"2 52351  53.2195  85.7634 0001732   9.7489 350.3542 15.20181881 25886","PERIOD":"94.726","TLE_LINE1":"1 52351U 22045W   22271.76741616  .00202292  00000-0  89882-2 0  9995","MEAN_ELEMENT_THEORY":"SGP4","EPHEMERIS_TYPE":"0","APOAPSIS":"506.486","COUNTRY_CODE":"US","ELEMENT_SET_NO":"999","OBJECT_NAME":"STARLINK-3816","OBJECT_TYPE":"PAYLOAD","SITE":"AFETR","ARG_OF_PERICENTER":"9.7489","INCLINATION":"53.2195","OBJECT_ID":"2022-045W","DECAY_DATE":null,"RA_OF_ASC_NODE":"85.7634","FILE":"3586258","MEAN_MOTION_DOT":"0.00202292","MEAN_ANOMALY":"350.3542","ECCENTRICITY":"0.00017320","MEAN_MOTION_DDOT":"0.0000000000000","RCS_SIZE":"LARGE","PERIAPSIS":"504.101","GP_ID":"213767466","NORAD_CAT_ID":"52351","EPOCH":"2022-09-28T18:25:04.756224"},{"OBJECT_TYPE":"PAYLOAD","SITE":"AFETR","ARG_OF_PERICENTER":"24.5660","INCLINATION":"53.2250","OBJECT_ID":"2022-045X","DECAY_DATE":null,"RA_OF_ASC_NODE":"87.2700","FILE":"3586039","MEAN_MOTION_DOT":"0.00001216","MEAN_ANOMALY":"335.5416","MEAN_MOTION_DDOT":"0.0000000000000","ECCENTRICITY":"0.00017570","RCS_SIZE":"LARGE","PERIAPSIS":"538.545","GP_ID":"213710582","NORAD_CAT_ID":"52352","EPOCH":"2022-09-28T12:30:41.692896","MEAN_MOTION":"15.08835068","CLASSIFICATION_TYPE":"U","SEMIMAJOR_AXIS":"6917.895","CENTER_NAME":"EARTH","REV_AT_EPOCH":"2584","REF_FRAME":"TEME","LAUNCH_DATE":"2022-04-29","BSTAR":"0.00009451700000","TIME_SYSTEM":"UTC","PERIOD":"95.438","TLE_LINE2":"2 52352  53.2250  87.2700 0001757  24.5660 335.5416 15.08835068 25843","TLE_LINE1":"1 52352U 22045X   22271.52131589  .00001216  00000-0  94517-4 0  9998","MEAN_ELEMENT_THEORY":"SGP4","EPHEMERIS_TYPE":"0","APOAPSIS":"540.976","COUNTRY_CODE":"US","ELEMENT_SET_NO":"999","OBJECT_NAME":"STARLINK-3838"},{"CLASSIFICATION_TYPE":"U","MEAN_MOTION":"15.08834841","SEMIMAJOR_AXIS":"6917.896","CENTER_NAME":"EARTH","REV_AT_EPOCH":"2583","BSTAR":"-0.00000468740000","TIME_SYSTEM":"UTC","REF_FRAME":"TEME","LAUNCH_DATE":"2022-04-29","TLE_LINE2":"2 52353  53.2197  87.5313 0002126  43.1261 316.9897 15.08834841 25835","PERIOD":"95.438","TLE_LINE1":"1 52353U 22045Y   22271.46243599 -.00000363  00000-0 -46874-5 0  9995","MEAN_ELEMENT_THEORY":"SGP4","APOAPSIS":"541.232","EPHEMERIS_TYPE":"0","COUNTRY_CODE":"US","ELEMENT_SET_NO":"999","OBJECT_NAME":"STARLINK-3807","OBJECT_TYPE":"PAYLOAD","ARG_OF_PERICENTER":"43.1261","INCLINATION":"53.2197","SITE":"AFETR","DECAY_DATE":null,"OBJECT_ID":"2022-045Y","MEAN_MOTION_DOT":"-0.00000363","MEAN_ANOMALY":"316.9897","RA_OF_ASC_NODE":"87.5313","FILE":"3586039","ECCENTRICITY":"0.00021260","MEAN_MOTION_DDOT":"0.0000000000000","NORAD_CAT_ID":"52353","EPOCH":"2022-09-28T11:05:54.469536","PERIAPSIS":"538.290","RCS_SIZE":"LARGE","GP_ID":"213710832"},{"NORAD_CAT_ID":"52354","EPOCH":"2022-09-28T12:14:46.984992","PERIAPSIS":"538.356","RCS_SIZE":"LARGE","GP_ID":"213711583","MEAN_MOTION_DOT":"0.00000701","MEAN_ANOMALY":"316.3512","FILE":"3586039","RA_OF_ASC_NODE":"87.3035","MEAN_MOTION_DDOT":"0.0000000000000","ECCENTRICITY":"0.00019910","ARG_OF_PERICENTER":"43.7638","INCLINATION":"53.2188","SITE":"AFETR","DECAY_DATE":null,"OBJECT_ID":"2022-045Z","OBJECT_TYPE":"PAYLOAD","COUNTRY_CODE":"US","ELEMENT_SET_NO":"999","OBJECT_NAME":"STARLINK-3876","MEAN_ELEMENT_THEORY":"SGP4","APOAPSIS":"541.111","EPHEMERIS_TYPE":"0","BSTAR":"0.00006211900000","TIME_SYSTEM":"UTC","REF_FRAME":"TEME","LAUNCH_DATE":"2022-04-29","PERIOD":"95.437","TLE_LINE2":"2 52354  53.2188  87.3035 0001991  43.7638 316.3512 15.08843805 25847","TLE_LINE1":"1 52354U 22045Z   22271.51026603  .00000701  00000-0  62119-4 0  9990","MEAN_MOTION":"15.08843805","CLASSIFICATION_TYPE":"U","CENTER_NAME":"EARTH","SEMIMAJOR_AXIS":"6917.869","REV_AT_EPOCH":"2584"},{"GP_ID":"213711321","RCS_SIZE":"LARGE","PERIAPSIS":"538.948","EPOCH":"2022-09-28T11:00:36.584928","NORAD_CAT_ID":"52355","MEAN_MOTION_DDOT":"0.0000000000000","ECCENTRICITY":"0.00011950","FILE":"3586039","RA_OF_ASC_NODE":"87.5427","MEAN_ANOMALY":"303.7030","MEAN_MOTION_DOT":"-0.00000671","OBJECT_ID":"2022-045AA","DECAY_DATE":null,"SITE":"AFETR","INCLINATION":"53.2176","ARG_OF_PERICENTER":"56.4076","OBJECT_TYPE":"PAYLOAD","OBJECT_NAME":"STARLINK-3877","ELEMENT_SET_NO":"999","COUNTRY_CODE":"US","EPHEMERIS_TYPE":"0","APOAPSIS":"540.601","MEAN_ELEMENT_THEORY":"SGP4","TLE_LINE1":"1 52355U 22045AA  22271.45875677 -.00000671  00000-0 -24076-4 0  9995","PERIOD":"95.438","TLE_LINE2":"2 52355  53.2176  87.5427 0001195  56.4076 303.7030 15.08830445 25835","LAUNCH_DATE":"2022-04-29","REF_FRAME":"TEME","BSTAR":"-0.00002407600000","TIME_SYSTEM":"UTC","REV_AT_EPOCH":"2583","SEMIMAJOR_AXIS":"6917.910","CENTER_NAME":"EARTH","CLASSIFICATION_TYPE":"U","MEAN_MOTION":"15.08830445"},{"COUNTRY_CODE":"US","OBJECT_NAME":"STARLINK-3801","ELEMENT_SET_NO":"999","MEAN_ELEMENT_THEORY":"SGP4","APOAPSIS":"540.959","EPHEMERIS_TYPE":"0","TIME_SYSTEM":"UTC","BSTAR":"0.00010223000000","LAUNCH_DATE":"2022-04-29","REF_FRAME":"TEME","TLE_LINE1":"1 52356U 22045AB  22271.51121979  .00001339  00000-0  10223-3 0  9990","TLE_LINE2":"2 52356  53.2195  87.2924 0001748  57.1499 302.9661 15.08838566 25841","PERIOD":"95.438","CENTER_NAME":"EARTH","SEMIMAJOR_AXIS":"6917.885","CLASSIFICATION_TYPE":"U","MEAN_MOTION":"15.08838566","REV_AT_EPOCH":"2584","EPOCH":"2022-09-28T12:16:09.389856","NORAD_CAT_ID":"52356","GP_ID":"213710083","PERIAPSIS":"538.541","RCS_SIZE":"LARGE","MEAN_ANOMALY":"302.9661","MEAN_MOTION_DOT":"0.00001339","RA_OF_ASC_NODE":"87.2924","FILE":"3586039","MEAN_MOTION_DDOT":"0.0000000000000","ECCENTRICITY":"0.00017480","INCLINATION":"53.2195","ARG_OF_PERICENTER":"57.1499","SITE":"AFETR","DECAY_DATE":null,"OBJECT_ID":"2022-045AB","OBJECT_TYPE":"PAYLOAD"},{"OBJECT_ID":"2022-045AC","DECAY_DATE":null,"SITE":"AFETR","INCLINATION":"53.2225","ARG_OF_PERICENTER":"62.5839","OBJECT_TYPE":"PAYLOAD","GP_ID":"213765968","PERIAPSIS":"538.113","RCS_SIZE":"LARGE","EPOCH":"2022-09-28T18:46:55.384608","NORAD_CAT_ID":"52357","ECCENTRICITY":"0.00023210","MEAN_MOTION_DDOT":"0.0000000000000","FILE":"3586258","RA_OF_ASC_NODE":"86.0921","MEAN_ANOMALY":"297.5389","MEAN_MOTION_DOT":"0.00000638","TLE_LINE1":"1 52357U 22045AC  22271.78258547  .00000638  00000-0  58174-4 0  9991","PERIOD":"95.437","TLE_LINE2":"2 52357  53.2225  86.0921 0002321  62.5839 297.5389 15.08848640 25880","LAUNCH_DATE":"2022-04-29","REF_FRAME":"TEME","TIME_SYSTEM":"UTC","BSTAR":"0.00005817400000","REV_AT_EPOCH":"2588","CENTER_NAME":"EARTH","SEMIMAJOR_AXIS":"6917.854","MEAN_MOTION":"15.08848640","CLASSIFICATION_TYPE":"U","OBJECT_NAME":"STARLINK-3821","ELEMENT_SET_NO":"999","COUNTRY_CODE":"US","EPHEMERIS_TYPE":"0","APOAPSIS":"541.325","MEAN_ELEMENT_THEORY":"SGP4"},{"OBJECT_TYPE":"PAYLOAD","DECAY_DATE":null,"OBJECT_ID":"2022-045AD","INCLINATION":"53.2198","ARG_OF_PERICENTER":"49.1022","SITE":"AFETR","MEAN_MOTION_DDOT":"0.0000000000000","ECCENTRICITY":"0.00021310","MEAN_ANOMALY":"311.0155","MEAN_MOTION_DOT":"0.00000772","FILE":"3586039","RA_OF_ASC_NODE":"87.3488","EPOCH":"2022-09-28T11:58:55.339968","NORAD_CAT_ID":"52358","GP_ID":"213711084","PERIAPSIS":"538.278","RCS_SIZE":"LARGE","REV_AT_EPOCH":"2584","CENTER_NAME":"EARTH","SEMIMAJOR_AXIS":"6917.887","CLASSIFICATION_TYPE":"U","MEAN_MOTION":"15.08837930","TLE_LINE1":"1 52358U 22045AD  22271.49925162  .00000772  00000-0  66639-4 0  9998","PERIOD":"95.438","TLE_LINE2":"2 52358  53.2198  87.3488 0002131  49.1022 311.0155 15.08837930 25845","BSTAR":"0.00006663900000","TIME_SYSTEM":"UTC","LAUNCH_DATE":"2022-04-29","REF_FRAME":"TEME","APOAPSIS":"541.226","EPHEMERIS_TYPE":"0","MEAN_ELEMENT_THEORY":"SGP4","OBJECT_NAME":"STARLINK-3837","ELEMENT_SET_NO":"999","COUNTRY_CODE":"US"},{"DECAY_DATE":null,"OBJECT_ID":"2022-045AE","ARG_OF_PERICENTER":"46.8537","INCLINATION":"53.2205","SITE":"AFETR","OBJECT_TYPE":"PAYLOAD","NORAD_CAT_ID":"52359","EPOCH":"2022-09-28T12:20:05.444160","PERIAPSIS":"538.403","RCS_SIZE":"LARGE","GP_ID":"213711821","ECCENTRICITY":"0.00019440","MEAN_MOTION_DDOT":"0.0000000000000","MEAN_MOTION_DOT":"0.00000657","MEAN_ANOMALY":"313.2618","FILE":"3586039","RA_OF_ASC_NODE":"87.2941","PERIOD":"95.438","TLE_LINE2":"2 52359  53.2205  87.2941 0001944  46.8537 313.2618 15.08839101 25844","TLE_LINE1":"1 52359U 22045AE  22271.51395190  .00000657  00000-0  59394-4 0  9996","TIME_SYSTEM":"UTC","BSTAR":"0.00005939400000","REF_FRAME":"TEME","LAUNCH_DATE":"2022-04-29","REV_AT_EPOCH":"2584","CLASSIFICATION_TYPE":"U","MEAN_MOTION":"15.08839101","SEMIMAJOR_AXIS":"6917.883","CENTER_NAME":"EARTH","ELEMENT_SET_NO":"999","OBJECT_NAME":"STARLINK-3853","COUNTRY_CODE":"US","APOAPSIS":"541.093","EPHEMERIS_TYPE":"0","MEAN_ELEMENT_THEORY":"SGP4"}];
